{"type": "FeatureCollection", "features": [ {"type": "Feature", "properties": {"norad_id": 45358, "name": "COSMOS 2545 (760)", "group": "glo-ops", "lat": -14.67573656496759, "lon": -48.285694715757366, "alt_km": 19134.765263926653, "timestamp": "2025-12-14T07:33:19.738408+00:00", "meta": {"OBJECT_NAME": "COSMOS 2545 (760)", "OBJECT_ID": "2020-018A", "EPOCH": "2025-12-10T13:58:04.872576", "MEAN_MOTION": 2.13102273, "ECCENTRICITY": 0.00118432, "INCLINATION": 64.471, "RA_OF_ASC_NODE": 319.0455, "ARG_OF_PERICENTER": 248.8319, "MEAN_ANOMALY": 111.0396, "EPHEMERIS_TYPE": 0, "CLASSIFICATION_TYPE": "U", "NORAD_CAT_ID": 45358, "ELEMENT_SET_NO": 999, "REV_AT_EPOCH": 4464, "BSTAR": 0, "MEAN_MOTION_DOT": -5.2e-07, "MEAN_MOTION_DDOT": 0}, "tle": {"line1": "1 45358U 20018A   25344.58200084 -.00000052  00000+0  00000+0 0  9997", "line2": "2 45358  64.4710 319.0455 0011843 248.8319 111.0396  2.13102273 44648"}}, "geometry": {"type": "Point", "coordinates": [-48.285694715757366, -14.67573656496759]}}, {"type": "Feature", "properties": {"norad_id": 46805, "name": "COSMOS 2547 (705K)", "group": "glo-ops", "lat": -17.412637775686473, "lon": 27.217615636092585, "alt_km": 19118.79394300256, "timestamp": "2025-12-14T07:33:19.738420+00:00", "meta": {"OBJECT_NAME": "COSMOS 2547 (705K)", "OBJECT_ID": "2020-075A", "EPOCH": "2025-12-13T02:47:35.788416", "MEAN_MOTION": 2.13100044, "ECCENTRICITY": 0.00062786, "INCLINATION": 64.5959, "RA_OF_ASC_NODE": 198.6839, "ARG_OF_PERICENTER": 228.7725, "MEAN_ANOMALY": 131.2461, "EPHEMERIS_TYPE": 0, "CLASSIFICATION_TYPE": "U", "NORAD_CAT_ID": 46805, "ELEMENT_SET_NO": 999, "REV_AT_EPOCH": 3994, "BSTAR": 0, "MEAN_MOTION_DOT": 7.7e-07, "MEAN_MOTION_DDOT": 0}, "tle": {"line1": "1 46805U 20075A   25347.11638644  .00000077  00000+0  00000+0 0  9993", "line2": "2 46805  64.5959 198.6839 0006278 228.7725 131.2461  2.13100044 39941"}}, "geometry": {"type": "Point", "coordinates": [27.217615636092585, -17.412637775686473]}}, {"type": "Feature", "properties": {"norad_id": 52984, "name": "COSMOS 2557 (706K)", "group": "glo-ops", "lat": 59.34149892195921, "lon": 14.917817782914948, "alt_km": 19155.255393094325, "timestamp": "2025-12-14T07:33:19.738432+00:00", "meta": {"OBJECT_NAME": "COSMOS 2557 (706K)", "OBJECT_ID": "2022-075A", "EPOCH": "2025-12-07T04:21:00.419904", "MEAN_MOTION": 2.13101754, "ECCENTRICITY": 0.00137049, "INCLINATION": 64.4129, "RA_OF_ASC_NODE": 321.247, "ARG_OF_PERICENTER": 276.9, "MEAN_ANOMALY": 82.939, "EPHEMERIS_TYPE": 0, "CLASSIFICATION_TYPE": "U", "NORAD_CAT_ID": 52984, "ELEMENT_SET_NO": 999, "REV_AT_EPOCH": 2662, "BSTAR": 0, "MEAN_MOTION_DOT": -5.2e-07, "MEAN_MOTION_DDOT": 0}, "tle": {"line1": "1 52984U 22075A   25341.18125486 -.00000052  00000+0  00000+0 0  9990", "line2": "2 52984  64.4129 321.2470 0013704 276.9000  82.9390  2.13101754 26625"}}, "geometry": {"type": "Point", "coordinates": [14.917817782914948, 59.34149892195921]}}, {"type": "Feature", "properties": {"norad_id": 54031, "name": "COSMOS 2559 (707K)", "group": "glo-ops", "lat": -28.010385773981284, "lon": 155.86022655423423, "alt_km": 19105.427679464923, "timestamp": "2025-12-14T07:33:19.738443+00:00", "meta": {"OBJECT_NAME": "COSMOS 2559 (707K)", "OBJECT_ID": "2022-130A", "EPOCH": "2025-12-13T02:25:11.978976", "MEAN_MOTION": 2.13101368, "ECCENTRICITY": 0.00117843, "INCLINATION": 64.3821, "RA_OF_ASC_NODE": 321.1284, "ARG_OF_PERICENTER": 192.3718, "MEAN_ANOMALY": 167.5993, "EPHEMERIS_TYPE": 0, "CLASSIFICATION_TYPE": "U", "NORAD_CAT_ID": 54031, "ELEMENT_SET_NO": 999, "REV_AT_EPOCH": 2472, "BSTAR": 0, "MEAN_MOTION_DOT": -6.2e-07, "MEAN_MOTION_DDOT": 0}, "tle": {"line1": "1 54031U 22130A   25347.10083309 -.00000062  00000+0  00000+0 0  9993", "line2": "2 54031  64.3821 321.1284 0011784 192.3718 167.5993  2.13101368 24722"}}, "geometry": {"type": "Point", "coordinates": [155.86022655423423, -28.010385773981284]}}, {"type": "Feature", "properties": {"norad_id": 54377, "name": "COSMOS 2564 (761)", "group": "glo-ops", "lat": -26.104948207645947, "lon": -174.52777331247162, "alt_km": 19146.50240823687, "timestamp": "2025-12-14T07:33:19.738455+00:00", "meta": {"OBJECT_NAME": "COSMOS 2564 (761)", "OBJECT_ID": "2022-161A", "EPOCH": "2025-12-13T09:56:35.350656", "MEAN_MOTION": 2.13102091, "ECCENTRICITY": 0.00086002, "INCLINATION": 64.7383, "RA_OF_ASC_NODE": 198.8765, "ARG_OF_PERICENTER": 204.6894, "MEAN_ANOMALY": 155.3431, "EPHEMERIS_TYPE": 0, "CLASSIFICATION_TYPE": "U", "NORAD_CAT_ID": 54377, "ELEMENT_SET_NO": 999, "REV_AT_EPOCH": 2367, "BSTAR": 0, "MEAN_MOTION_DOT": 8.1e-07, "MEAN_MOTION_DDOT": 0}, "tle": {"line1": "1 54377U 22161A   25347.41429804  .00000081  00000+0  00000+0 0  9998", "line2": "2 54377  64.7383 198.8765 0008600 204.6894 155.3431  2.13102091 23679"}}, "geometry": {"type": "Point", "coordinates": [-174.52777331247162, -26.104948207645947]}}, {"type": "Feature", "properties": {"norad_id": 57517, "name": "COSMOS 2569 (703K)", "group": "glo-ops", "lat": -35.227621870935, "lon": 59.83411438765133, "alt_km": 19111.94324249027, "timestamp": "2025-12-14T07:33:19.738466+00:00", "meta": {"OBJECT_NAME": "COSMOS 2569 (703K)", "OBJECT_ID": "2023-114A", "EPOCH": "2025-12-12T23:00:06.356160", "MEAN_MOTION": 2.13103989, "ECCENTRICITY": 0.00105383, "INCLINATION": 65.1943, "RA_OF_ASC_NODE": 78.9061, "ARG_OF_PERICENTER": 287.004, "MEAN_ANOMALY": 72.8956, "EPHEMERIS_TYPE": 0, "CLASSIFICATION_TYPE": "U", "NORAD_CAT_ID": 57517, "ELEMENT_SET_NO": 999, "REV_AT_EPOCH": 1829, "BSTAR": 0, "MEAN_MOTION_DOT": -4.5e-07, "MEAN_MOTION_DDOT": 0}, "tle": {"line1": "1 57517U 23114A   25346.95840690 -.00000045  00000+0  00000+0 0  9995", "line2": "2 57517  65.1943  78.9061 0010538 287.0040  72.8956  2.13103989 18297"}}, "geometry": {"type": "Point", "coordinates": [59.83411438765133, -35.227621870935]}}, {"type": "Feature", "properties": {"norad_id": 63130, "name": "COSMOS 2584 (704K)", "group": "glo-ops", "lat": 41.95437449592907, "lon": 103.88536182256124, "alt_km": 19144.227130813313, "timestamp": "2025-12-14T07:33:19.738478+00:00", "meta": {"OBJECT_NAME": "COSMOS 2584 (704K)", "OBJECT_ID": "2025-042A", "EPOCH": "2025-12-12T20:16:48.196992", "MEAN_MOTION": 2.13103011, "ECCENTRICITY": 0.00076618, "INCLINATION": 64.9761, "RA_OF_ASC_NODE": 79.1423, "ARG_OF_PERICENTER": 217.4089, "MEAN_ANOMALY": 142.5525, "EPHEMERIS_TYPE": 0, "CLASSIFICATION_TYPE": "U", "NORAD_CAT_ID": 63130, "ELEMENT_SET_NO": 999, "REV_AT_EPOCH": 607, "BSTAR": 0, "MEAN_MOTION_DOT": -4.4e-07, "MEAN_MOTION_DDOT": 0}, "tle": {"line1": "1 63130U 25042A   25346.84500228 -.00000044  00000+0  00000+0 0  9992", "line2": "2 63130  64.9761  79.1423 0007661 217.4089 142.5525  2.13103011  6074"}}, "geometry": {"type": "Point", "coordinates": [103.88536182256124, 41.95437449592907]}}, {"type": "Feature", "properties": {"norad_id": 65590, "name": "COSMOS 2596 (708K)", "group": "glo-ops", "lat": 12.652710241975448, "lon": 135.32612018662576, "alt_km": 19156.42833244446, "timestamp": "2025-12-14T07:33:19.738509+00:00", "meta": {"OBJECT_NAME": "COSMOS 2596 (708K)", "OBJECT_ID": "2025-206B", "EPOCH": "2025-12-13T03:40:38.538048", "MEAN_MOTION": 2.13100493, "ECCENTRICITY": 0.00140265, "INCLINATION": 64.7439, "RA_OF_ASC_NODE": 321.4594, "ARG_OF_PERICENTER": 306.3445, "MEAN_ANOMALY": 48.5588, "EPHEMERIS_TYPE": 0, "CLASSIFICATION_TYPE": "U", "NORAD_CAT_ID": 65590, "ELEMENT_SET_NO": 999, "REV_AT_EPOCH": 194, "BSTAR": 0, "MEAN_MOTION_DOT": -6.1e-07, "MEAN_MOTION_DDOT": 0}, "tle": {"line1": "1 65590U 25206B   25347.15322382 -.00000061  00000+0  00000+0 0  9993", "line2": "2 65590  64.7439 321.4594 0014026 306.3445  48.5588  2.13100493  1941"}}, "geometry": {"type": "Point", "coordinates": [135.32612018662576, 12.652710241975448]}}]}